NORAD_CAT_ID,OBJECT_NAME,OBJECT_TYPE,EPOCH,MEAN_MOTION,ECCENTRICITY,INCLINATION,RA_OF_ASC_NODE,ARG_OF_PERICENTER,MEAN_ANOMALY,BSTAR,MEAN_MOTION_DOT,MEAN_MOTION_DDOT,TLE_LINE0,TLE_LINE1,TLE_LINE2,SEMIMAJOR_AXIS,PERIOD,APOGEE,PERIGEE,DECAYED
56465.0,STARLINK-6054,PAYLOAD,2023-10-04 18:29:13,15.69932264,0.0002556,70.0023,191.0116,272.2004,87.8899,6.5688e-05,7.695e-05,0.0,0 STARLINK-6054,1 56465U 23064T   23277.77029657  .00007695  00000-0  65688-4 0  9999,2 56465  70.0023 191.0116 0002556 272.2004  87.8899 15.69932264 23476,6737.228,91.724,360.815,357.371,0.0
56465.0,STARLINK-6054,PAYLOAD,2023-10-04 21:32:43,15.69927037,0.0002859,70.0015,190.6535,266.239,93.8479,2.0851e-05,2.296e-05,0.0,0 STARLINK-6054,1 56465U 23064T   23277.89772933  .00002296  00000-0  20851-4 0  9999,2 56465  70.0015 190.6535 0002859 266.2390  93.8479 15.69927037 23141,6737.243,91.724,361.034,357.182,0.0
56465.0,STARLINK-6054,PAYLOAD,2023-10-05 11:18:30,15.69916092,0.0003783,69.9994,189.0422,268.7692,91.3071,-1.1582e-05,-1.605e-05,0.0,0 STARLINK-6054,1 56465U 23064T   23278.47118329 -.00001605  00000-0 -11582-4 0  9993,2 56465  69.9994 189.0422 0003783 268.7692  91.3071 15.69916092 23230,6737.274,91.725,361.688,356.59,0.0
56465.0,STARLINK-6054,PAYLOAD,2023-10-05 20:29:00,15.6994253,0.0003267,70.0014,187.9681,268.4214,91.6607,5.8582e-05,6.842e-05,0.0,0 STARLINK-6054,1 56465U 23064T   23278.85347512  .00006842  00000-0  58582-4 0  9990,2 56465  70.0014 187.9681 0003267 268.4214  91.6607 15.69942530 23643,6737.198,91.723,361.264,356.862,0.0
56465.0,STARLINK-6054,PAYLOAD,2023-10-06 02:36:01,15.69912217,0.0003184,70.0002,187.2515,259.537,100.5467,-1.5543e-05,-2.08e-05,0.0,0 STARLINK-6054,1 56465U 23064T   23279.10835321 -.00002080  00000-0 -15543-4 0  9991,2 56465  70.0002 187.2515 0003184 259.5370 100.5467 15.69912217 23688,6737.285,91.725,361.295,357.005,0.0
56465.0,STARLINK-6054,PAYLOAD,2023-10-06 05:39:32,15.6991352,0.0002967,69.9995,186.8911,271.4339,88.6517,-2.1901e-05,-2.844e-05,0.0,0 STARLINK-6054,1 56465U 23064T   23279.23578918 -.00002844  00000-0 -21901-4 0  9994,2 56465  69.9995 186.8911 0002967 271.4339  88.6517 15.69913520 23351,6737.281,91.725,361.145,357.147,0.0
56465.0,STARLINK-6054,PAYLOAD,2023-10-06 20:57:02,15.69929049,0.0004315,69.9984,185.0994,276.7386,83.3318,3.2607e-05,3.711e-05,0.0,0 STARLINK-6054,1 56465U 23064T   23279.87294916  .00003711  00000-0  32607-4 0  9994,2 56465  69.9984 185.0994 0004315 276.7386  83.3318 15.69929049 23455,6737.237,91.724,362.009,356.195,0.0
56465.0,STARLINK-6054,PAYLOAD,2023-10-07 01:32:18,15.6993794,0.0003463,69.9993,184.5651,273.6397,86.4402,8.7998e-05,0.00010387,0.0,0 STARLINK-6054,1 56465U 23064T   23280.06409827  .00010387  00000-0  87998-4 0  9996,2 56465  69.9993 184.5651 0003463 273.6397  86.4402 15.69937940 23839,6737.212,91.723,361.41,356.743,0.0
56465.0,STARLINK-6054,PAYLOAD,2023-10-07 10:42:49,15.6992109,0.0003213,69.9993,183.4881,273.0565,87.0263,1.5357e-05,1.634e-05,0.0,0 STARLINK-6054,1 56465U 23064T   23280.44640397  .00001634  00000-0  15357-4 0  9992,2 56465  69.9993 183.4881 0003213 273.0565  87.0263 15.69921090 23545,6737.26,91.724,361.289,356.96,0.0
56465.0,STARLINK-6054,PAYLOAD,2023-10-07 18:21:34,15.6993166,0.0003389,69.9981,182.592,272.84,87.2408,5.0591e-05,5.876e-05,0.0,0 STARLINK-6054,1 56465U 23064T   23280.76498467  .00005876  00000-0  50591-4 0  9997,2 56465  69.9981 182.5920 0003389 272.8400  87.2408 15.69931660 23946,6737.23,91.724,361.378,356.811,0.0
56465.0,STARLINK-6054,PAYLOAD,2023-10-07 21:25:04,15.69933196,0.0003575,69.9999,182.2336,273.1025,86.9762,5.3556e-05,6.234e-05,0.0,0 STARLINK-6054,1 56465U 23064T   23280.89241700  .00006234  00000-0  53556-4 0  9990,2 56465  69.9999 182.2336 0003575 273.1025  86.9762 15.69933196 23616,6737.225,91.724,361.499,356.682,0.0
56465.0,STARLINK-6054,PAYLOAD,2023-10-08 05:03:50,15.69923227,0.0003178,70.0004,181.3417,264.7721,95.3112,1.6792e-05,1.807e-05,0.0,0 STARLINK-6054,1 56465U 23064T   23281.21100288  .00001807  00000-0  16792-4 0  9994,2 56465  70.0004 181.3417 0003178 264.7721  95.3112 15.69923227 24016,6737.254,91.724,361.26,356.978,0.0
56465.0,STARLINK-6054,PAYLOAD,2023-10-08 11:10:50,15.69931917,0.0003865,69.9998,180.6227,260.8165,99.2594,6.463e-05,7.568e-05,0.0,0 STARLINK-6054,1 56465U 23064T   23281.46586593  .00007568  00000-0  64630-4 0  9992,2 56465  69.9998 180.6227 0003865 260.8165  99.2594 15.69931917 23705,6737.229,91.724,361.698,356.49,0.0
56465.0,STARLINK-6054,PAYLOAD,2023-10-08 18:49:36,15.69941664,0.0003637,70.0,179.7278,261.1634,98.915,9.5184e-05,0.00011256,0.0,0 STARLINK-6054,1 56465U 23064T   23281.78444772  .00011256  00000-0  95184-4 0  9996,2 56465  70.0000 179.7278 0003637 261.1634  98.9150 15.69941664 24108,6737.201,91.723,361.516,356.616,0.0
56465.0,STARLINK-6054,PAYLOAD,2023-10-08 20:21:21,15.69919002,0.0004227,69.9988,179.5468,281.5429,78.5292,3.9789e-05,4.573e-05,0.0,0 STARLINK-6054,1 56465U 23064T   23281.84817063  .00004573  00000-0  39789-4 0  9993,2 56465  69.9988 179.5468 0004227 281.5429  78.5292 15.69919002 23766,6737.266,91.724,361.979,356.283,0.0
56465.0,STARLINK-6054,PAYLOAD,2023-10-09 02:28:22,15.69926001,0.0003687,69.9994,178.8315,267.6186,92.4587,2.4563e-05,2.742e-05,0.0,0 STARLINK-6054,1 56465U 23064T   23282.10303350  .00002742  00000-0  24563-4 0  9992,2 56465  69.9994 178.8315 0003687 267.6186  92.4587 15.69926001 24153,6737.246,91.724,361.595,356.627,0.0
56465.0,STARLINK-6054,PAYLOAD,2023-10-09 10:07:08,15.69916812,0.0003429,70.0,177.9358,265.876,94.2044,4.0214e-06,2.71e-06,0.0,0 STARLINK-6054,1 56465U 23064T   23282.42162066  .00000271  00000-0  40214-5 0  9991,2 56465  70.0000 177.9358 0003429 265.8760  94.2044 15.69916812 23856,6737.272,91.725,361.447,356.827,0.0
56465.0,STARLINK-6054,PAYLOAD,2023-10-09 20:49:23,15.69945677,0.0002919,70.0017,176.6815,270.4959,89.5903,0.0001383,0.00016463,0.0,0 STARLINK-6054,1 56465U 23064T   23282.86763375  .00016463  00000-0  13830-3 0  9991,2 56465  70.0017 176.6815 0002919 270.4959  89.5903 15.69945677 23923,6737.189,91.723,361.021,357.088,0.0
56465.0,STARLINK-6054,PAYLOAD,2023-10-10 02:56:24,15.69927156,0.0002507,70.0004,175.9651,267.7118,92.379,3.4852e-05,3.98e-05,0.0,0 STARLINK-6054,1 56465U 23064T   23283.12250384  .00003980  00000-0  34852-4 0  9990,2 56465  70.0004 175.9651 0002507 267.7118  92.3790 15.69927156 24310,6737.242,91.724,360.796,357.418,0.0
56465.0,STARLINK-6054,PAYLOAD,2023-10-10 10:35:10,15.69917138,0.0002386,70.0018,175.0698,271.2857,88.8065,-1.7728e-05,-2.342e-05,0.0,0 STARLINK-6054,1 56465U 23064T   23283.44109063 -.00002342  00000-0 -17728-4 0  9998,2 56465  70.0018 175.0698 0002386 271.2857  88.8065 15.69917138 24361,6737.271,91.725,360.744,357.529,0.0
56465.0,STARLINK-6054,PAYLOAD,2023-10-10 19:45:40,15.69922024,0.0002905,70.0009,173.9953,268.829,91.2573,2.4022e-05,2.676e-05,0.0,0 STARLINK-6054,1 56465U 23064T   23283.82338998  .00002676  00000-0  24022-4 0  9994,2 56465  70.0009 173.9953 0002905 268.8290  91.2573 15.69922024 24072,6737.257,91.724,361.079,357.165,0.0
56465.0,STARLINK-6054,PAYLOAD,2023-10-11 01:52:41,15.69939217,0.0002632,70.0016,173.2798,261.5887,98.5011,7.1933e-05,8.45e-05,0.0,0 STARLINK-6054,1 56465U 23064T   23284.07825247  .00008450  00000-0  71933-4 0  9999,2 56465  70.0016 173.2798 0002632 261.5887  98.5011 15.69939217 24461,6737.208,91.723,360.846,357.3,0.0
56465.0,STARLINK-6054,PAYLOAD,2023-10-11 18:41:57,15.69929358,0.0002834,70.0025,171.3084,249.6222,110.4669,5.7365e-05,6.692e-05,0.0,0 STARLINK-6054,1 56465U 23064T   23284.77913932  .00006692  00000-0  57365-4 0  9994,2 56465  70.0025 171.3084 0002834 249.6222 110.4669 15.69929358 24572,6737.236,91.724,361.01,357.192,0.0
56465.0,STARLINK-6054,PAYLOAD,2023-10-12 03:52:28,15.6992657,0.000272,70.0013,170.2333,270.6014,89.487,3.3442e-05,3.811e-05,0.0,0 STARLINK-6054,1 56465U 23064T   23285.16144310  .00003811  00000-0  33442-4 0  9994,2 56465  70.0013 170.2333 0002720 270.6014  89.4870 15.69926570 24630,6737.244,91.724,360.942,357.277,0.0
56465.0,STARLINK-6054,PAYLOAD,2023-10-12 09:59:29,15.69930437,0.0002868,70.0005,169.5162,272.5391,87.5476,6.5668e-05,7.692e-05,0.0,0 STARLINK-6054,1 56465U 23064T   23285.41630932  .00007692  00000-0  65668-4 0  9998,2 56465  70.0005 169.5162 0002868 272.5391  87.5476 15.69930437 24328,6737.233,91.724,361.03,357.166,0.0
56465.0,STARLINK-6054,PAYLOAD,2023-10-12 19:09:59,15.69930701,0.0002848,70.0007,168.4415,270.2335,89.8534,5.3245e-05,6.196e-05,0.0,0 STARLINK-6054,1 56465U 23064T   23285.79860938  .00006196  00000-0  53245-4 0  9996,2 56465  70.0007 168.4415 0002848 270.2335  89.8534 15.69930701 24380,6737.232,91.724,361.016,357.178,0.0
56465.0,STARLINK-6054,PAYLOAD,2023-10-13 02:48:45,15.69915337,0.0002473,70.001,167.5481,262.1915,97.9,-2.7407e-06,-5.41e-06,0.0,0 STARLINK-6054,1 56465U 23064T   23286.11719621 -.00000541  00000-0 -27407-5 0  9997,2 56465  70.0010 167.5481 0002473 262.1915  97.9000 15.69915337 24785,6737.276,91.725,360.807,357.475,0.0
56465.0,STARLINK-6054,PAYLOAD,2023-10-13 19:38:01,15.69941598,0.0003916,69.9988,165.5757,265.9029,94.1719,9.4329e-05,0.00011154,0.0,0 STARLINK-6054,1 56465U 23064T   23286.81806988  .00011154  00000-0  94329-4 0  9993,2 56465  69.9988 165.5757 0003916 265.9029  94.1719 15.69941598 24896,6737.201,91.723,361.704,356.428,0.0
56465.0,STARLINK-6054,PAYLOAD,2023-10-13 22:41:31,15.69935495,0.0004049,69.9992,165.2171,269.8705,90.2026,5.6414e-05,6.58e-05,0.0,0 STARLINK-6054,1 56465U 23064T   23286.94550403  .00006580  00000-0  56414-4 0  9995,2 56465  69.9992 165.2171 0004049 269.8705  90.2026 15.69935495 24561,6737.219,91.724,361.811,356.356,0.0
56465.0,STARLINK-6054,PAYLOAD,2023-10-14 01:45:01,15.69932185,0.0004033,69.998,164.8583,271.3059,88.7675,3.5118e-05,4.013e-05,0.0,0 STARLINK-6054,1 56465U 23064T   23287.07293785  .00004013  00000-0  35118-4 0  9994,2 56465  69.9980 164.8583 0004033 271.3059  88.7675 15.69932185 24939,6737.228,91.724,361.81,356.376,0.0
